[{"OBJECT_NAME":"STARLINK-11403 [DTC]","OBJECT_ID":"2025-035J","EPOCH":"2025-11-06T14:47:33.713952","MEAN_MOTION":15.70902546,"ECCENTRICITY":0.0002179,"INCLINATION":43.0012,"RA_OF_ASC_NODE":37.2743,"ARG_OF_PERICENTER":266.7979,"MEAN_ANOMALY":93.264,"EPHEMERIS_TYPE":0,"CLASSIFICATION_TYPE":"U","NORAD_CAT_ID":63060,"ELEMENT_SET_NO":999,"REV_AT_EPOCH":4186,"BSTAR":0.0019705,"MEAN_MOTION_DOT":0.00261187,"MEAN_MOTION_DDOT":0},{"OBJECT_NAME":"STARLINK-11409 [DTC]","OBJECT_ID":"2025-035K","EPOCH":"2025-11-06T14:56:31.877088","MEAN_MOTION":15.71131358,"ECCENTRICITY":0.0001959,"INCLINATION":43.0011,"RA_OF_ASC_NODE":37.3218,"ARG_OF_PERICENTER":314.708,"MEAN_ANOMALY":45.3628,"EPHEMERIS_TYPE":0,"CLASSIFICATION_TYPE":"U","NORAD_CAT_ID":63061,"ELEMENT_SET_NO":999,"REV_AT_EPOCH":4186,"BSTAR":0.0022217,"MEAN_MOTION_DOT":0.00298745,"MEAN_MOTION_DDOT":0},{"OBJECT_NAME":"STARLINK-11412 [DTC]","OBJECT_ID":"2025-035L","EPOCH":"2025-11-06T14:39:55.144224","MEAN_MOTION":15.70899337,"ECCENTRICITY":0.0001236,"INCLINATION":42.998,"RA_OF_ASC_NODE":37.2279,"ARG_OF_PERICENTER":280.2983,"MEAN_ANOMALY":79.7745,"EPHEMERIS_TYPE":0,"CLASSIFICATION_TYPE":"U","NORAD_CAT_ID":63062,"ELEMENT_SET_NO":999,"REV_AT_EPOCH":4186,"BSTAR":0.0012025,"MEAN_MOTION_DOT":0.00157194,"MEAN_MOTION_DDOT":0},{"OBJECT_NAME":"STARLINK-11399 [DTC]","OBJECT_ID":"2025-035M","EPOCH":"2025-11-06T15:40:53.995008","MEAN_MOTION":15.70827366,"ECCENTRICITY":0.0001507,"INCLINATION":42.9997,"RA_OF_ASC_NODE":36.6745,"ARG_OF_PERICENTER":304.0601,"MEAN_ANOMALY":56.0123,"EPHEMERIS_TYPE":0,"CLASSIFICATION_TYPE":"U","NORAD_CAT_ID":63063,"ELEMENT_SET_NO":999,"REV_AT_EPOCH":4187,"BSTAR":0.0019428,"MEAN_MOTION_DOT":0.00256548,"MEAN_MOTION_DDOT":0},{"OBJECT_NAME":"STARLINK-11408 [DTC]","OBJECT_ID":"2025-035N","EPOCH":"2025-11-06T17:04:48.148896","MEAN_MOTION":15.70931777,"ECCENTRICITY":0.000171,"INCLINATION":42.9992,"RA_OF_ASC_NODE":36.2481,"ARG_OF_PERICENTER":257.458,"MEAN_ANOMALY":102.6097,"EPHEMERIS_TYPE":0,"CLASSIFICATION_TYPE":"U","NORAD_CAT_ID":63064,"ELEMENT_SET_NO":999,"REV_AT_EPOCH":4188,"BSTAR":0.0011915,"MEAN_MOTION_DOT":0.00155936,"MEAN_MOTION_DDOT":0},{"OBJECT_NAME":"STARLINK-33635","OBJECT_ID":"2025-035P","EPOCH":"2025-11-06T12:35:59.218080","MEAN_MOTION":15.27609766,"ECCENTRICITY":5.76e-5,"INCLINATION":42.996,"RA_OF_ASC_NODE":122.6192,"ARG_OF_PERICENTER":209.5408,"MEAN_ANOMALY":150.5411,"EPHEMERIS_TYPE":0,"CLASSIFICATION_TYPE":"U","NORAD_CAT_ID":63065,"ELEMENT_SET_NO":999,"REV_AT_EPOCH":4089,"BSTAR":0.0012941,"MEAN_MOTION_DOT":0.00035552,"MEAN_MOTION_DDOT":0},{"OBJECT_NAME":"STARLINK-33622","OBJECT_ID":"2025-035Q","EPOCH":"2025-11-06T12:10:05.029824","MEAN_MOTION":15.27607968,"ECCENTRICITY":4.83e-5,"INCLINATION":42.9961,"RA_OF_ASC_NODE":122.4751,"ARG_OF_PERICENTER":231.1539,"MEAN_ANOMALY":128.9269,"EPHEMERIS_TYPE":0,"CLASSIFICATION_TYPE":"U","NORAD_CAT_ID":63066,"ELEMENT_SET_NO":999,"REV_AT_EPOCH":4089,"BSTAR":0.0012596,"MEAN_MOTION_DOT":0.00034592,"MEAN_MOTION_DDOT":0},{"OBJECT_NAME":"STARLINK-33628","OBJECT_ID":"2025-035R","EPOCH":"2025-11-06T13:01:53.693184","MEAN_MOTION":15.27605551,"ECCENTRICITY":0.000143,"INCLINATION":43.0007,"RA_OF_ASC_NODE":122.7509,"ARG_OF_PERICENTER":262.4034,"MEAN_ANOMALY":97.6655,"EPHEMERIS_TYPE":0,"CLASSIFICATION_TYPE":"U","NORAD_CAT_ID":63067,"ELEMENT_SET_NO":999,"REV_AT_EPOCH":4089,"BSTAR":0.001788,"MEAN_MOTION_DOT":0.00049308,"MEAN_MOTION_DDOT":0},{"OBJECT_NAME":"STARLINK-33627","OBJECT_ID":"2025-035S","EPOCH":"2025-11-06T12:50:48.565248","MEAN_MOTION":15.27601949,"ECCENTRICITY":0.0001976,"INCLINATION":43.0015,"RA_OF_ASC_NODE":122.6957,"ARG_OF_PERICENTER":271.3325,"MEAN_ANOMALY":88.73,"EPHEMERIS_TYPE":0,"CLASSIFICATION_TYPE":"U","NORAD_CAT_ID":63068,"ELEMENT_SET_NO":999,"REV_AT_EPOCH":4088,"BSTAR":0.0012537,"MEAN_MOTION_DOT":0.00034423,"MEAN_MOTION_DDOT":0},{"OBJECT_NAME":"STARLINK-33620","OBJECT_ID":"2025-035T","EPOCH":"2025-11-06T12:45:14.209344","MEAN_MOTION":15.27595211,"ECCENTRICITY":0.000114,"INCLINATION":42.9995,"RA_OF_ASC_NODE":122.668,"ARG_OF_PERICENTER":270.1777,"MEAN_ANOMALY":89.8944,"EPHEMERIS_TYPE":0,"CLASSIFICATION_TYPE":"U","NORAD_CAT_ID":63069,"ELEMENT_SET_NO":999,"REV_AT_EPOCH":4088,"BSTAR":0.001608,"MEAN_MOTION_DOT":0.00044272,"MEAN_MOTION_DDOT":0},{"OBJECT_NAME":"STARLINK-33604","OBJECT_ID":"2025-035U","EPOCH":"2025-11-06T13:22:15.229344","MEAN_MOTION":15.27596765,"ECCENTRICITY":0.0001845,"INCLINATION":42.9994,"RA_OF_ASC_NODE":122.8595,"ARG_OF_PERICENTER":280.7373,"MEAN_ANOMALY":79.3271,"EPHEMERIS_TYPE":0,"CLASSIFICATION_TYPE":"U","NORAD_CAT_ID":63070,"ELEMENT_SET_NO":999,"REV_AT_EPOCH":4088,"BSTAR":0.0016747,"MEAN_MOTION_DOT":0.00046134,"MEAN_MOTION_DDOT":0},{"OBJECT_NAME":"STARLINK-33624","OBJECT_ID":"2025-035V","EPOCH":"2025-11-06T13:02:35.363040","MEAN_MOTION":15.27638692,"ECCENTRICITY":0.000331,"INCLINATION":43.001,"RA_OF_ASC_NODE":119.2829,"ARG_OF_PERICENTER":297.6446,"MEAN_ANOMALY":62.4069,"EPHEMERIS_TYPE":0,"CLASSIFICATION_TYPE":"U","NORAD_CAT_ID":63071,"ELEMENT_SET_NO":999,"REV_AT_EPOCH":4082,"BSTAR":0.0019182,"MEAN_MOTION_DOT":0.00053004,"MEAN_MOTION_DDOT":0},{"OBJECT_NAME":"STARLINK-33623","OBJECT_ID":"2025-035W","EPOCH":"2025-11-06T13:12:59.361120","MEAN_MOTION":15.27620725,"ECCENTRICITY":0.0002148,"INCLINATION":42.9938,"RA_OF_ASC_NODE":122.8005,"ARG_OF_PERICENTER":179.5524,"MEAN_ANOMALY":180.533,"EPHEMERIS_TYPE":0,"CLASSIFICATION_TYPE":"U","NORAD_CAT_ID":63072,"ELEMENT_SET_NO":999,"REV_AT_EPOCH":4089,"BSTAR":0.0015438,"MEAN_MOTION_DOT":0.00042519,"MEAN_MOTION_DDOT":0},{"OBJECT_NAME":"STARLINK-33586","OBJECT_ID":"2025-035X","EPOCH":"2025-11-06T12:22:34.688064","MEAN_MOTION":15.27610505,"ECCENTRICITY":9.71e-5,"INCLINATION":42.9991,"RA_OF_ASC_NODE":115.6134,"ARG_OF_PERICENTER":245.7387,"MEAN_ANOMALY":114.3363,"EPHEMERIS_TYPE":0,"CLASSIFICATION_TYPE":"U","NORAD_CAT_ID":63073,"ELEMENT_SET_NO":999,"REV_AT_EPOCH":4097,"BSTAR":0.00125,"MEAN_MOTION_DOT":0.00034326,"MEAN_MOTION_DDOT":0},{"OBJECT_NAME":"STARLINK-33605","OBJECT_ID":"2025-035Y","EPOCH":"2025-11-06T12:19:19.964064","MEAN_MOTION":15.2757534,"ECCENTRICITY":0.0001414,"INCLINATION":42.9995,"RA_OF_ASC_NODE":122.5236,"ARG_OF_PERICENTER":265.7373,"MEAN_ANOMALY":94.3317,"EPHEMERIS_TYPE":0,"CLASSIFICATION_TYPE":"U","NORAD_CAT_ID":63074,"ELEMENT_SET_NO":999,"REV_AT_EPOCH":4088,"BSTAR":0.0010129,"MEAN_MOTION_DOT":0.00027711,"MEAN_MOTION_DDOT":0},{"OBJECT_NAME":"STARLINK-32839","OBJECT_ID":"2025-037A","EPOCH":"2025-11-06T09:49:12.394272","MEAN_MOTION":14.9833847,"ECCENTRICITY":0.0003173,"INCLINATION":70.0007,"RA_OF_ASC_NODE":305.3795,"ARG_OF_PERICENTER":272.2509,"MEAN_ANOMALY":87.8287,"EPHEMERIS_TYPE":0,"CLASSIFICATION_TYPE":"U","NORAD_CAT_ID":63077,"ELEMENT_SET_NO":999,"REV_AT_EPOCH":4012,"BSTAR":0.00091242,"MEAN_MOTION_DOT":0.00010813,"MEAN_MOTION_DDOT":0}]
