STARLINK-11403 [DTC]    
1 63060U 25035J   25310.61636243  .00261187  00000+0  19705-2 0  9990
2 63060  43.0012  37.2743 0002179 266.7979  93.2640 15.70902546 41860
STARLINK-11409 [DTC]    
1 63061U 25035K   25310.62259117  .00298745  00000+0  22217-2 0  9995
2 63061  43.0011  37.3218 0001959 314.7080  45.3628 15.71131358 41860
STARLINK-11412 [DTC]    
1 63062U 25035L   25310.61105491  .00157194  00000+0  12025-2 0  9998
2 63062  42.9980  37.2279 0001236 280.2983  79.7745 15.70899337 41865
STARLINK-11399 [DTC]    
1 63063U 25035M   25310.65340272  .00256548  00000+0  19428-2 0  9998
2 63063  42.9997  36.6745 0001507 304.0601  56.0123 15.70827366 41870
STARLINK-11408 [DTC]    
1 63064U 25035N   25310.71166839  .00155936  00000+0  11915-2 0  9993
2 63064  42.9992  36.2481 0001710 257.4580 102.6097 15.70931777 41883
STARLINK-33635          
1 63065U 25035P   25310.52499095  .00035552  00000+0  12941-2 0  9997
2 63065  42.9960 122.6192 0000576 209.5408 150.5411 15.27609766 40898
STARLINK-33622          
1 63066U 25035Q   25310.50700266  .00034592  00000+0  12596-2 0  9990
2 63066  42.9961 122.4751 0000483 231.1539 128.9269 15.27607968 40894
STARLINK-33628          
1 63067U 25035R   25310.54298256  .00049308  00000+0  17880-2 0  9998
2 63067  43.0007 122.7509 0001430 262.4034  97.6655 15.27605551 40899
STARLINK-33627          
1 63068U 25035S   25310.53528432  .00034423  00000+0  12537-2 0  9996
2 63068  43.0015 122.6957 0001976 271.3325  88.7300 15.27601949 40886
STARLINK-33620          
1 63069U 25035T   25310.53141446  .00044272  00000+0  16080-2 0  9993
2 63069  42.9995 122.6680 0001140 270.1777  89.8944 15.27595211 40886
STARLINK-33604          
1 63070U 25035U   25310.55712071  .00046134  00000+0  16747-2 0  9994
2 63070  42.9994 122.8595 0001845 280.7373  79.3271 15.27596765 40887
STARLINK-33624          
1 63071U 25035V   25310.54346485  .00053004  00000+0  19182-2 0  9996
2 63071  43.0010 119.2829 0003310 297.6446  62.4069 15.27638692 40824
STARLINK-33623          
1 63072U 25035W   25310.55068705  .00042519  00000+0  15438-2 0  9993
2 63072  42.9938 122.8005 0002148 179.5524 180.5330 15.27620725 40899
STARLINK-33586          
1 63073U 25035X   25310.51567926  .00034326  00000+0  12500-2 0  9993
2 63073  42.9991 115.6134 0000971 245.7387 114.3363 15.27610505 40972
STARLINK-33605          
1 63074U 25035Y   25310.51342551  .00027711  00000+0  10129-2 0  9994
2 63074  42.9995 122.5236 0001414 265.7373  94.3317 15.27575340 40880
STARLINK-32839          
1 63077U 25037A   25310.40917123  .00010813  00000+0  91242-3 0  9991
2 63077  70.0007 305.3795 0003173 272.2509  87.8287 14.98338470 40126
